{"type": "FeatureCollection", "features": [ {"type": "Feature", "properties": {"norad_id": 35435, "name": "COSMOS 2251 DEB", "group": "cosmos-2251-debris", "lat": -69.91808532412789, "lon": 72.94313637259611, "alt_km": 640.2933401289738, "timestamp": "2025-12-02T07:10:09.512398+00:00", "meta": {"OBJECT_NAME": "COSMOS 2251 DEB", "OBJECT_ID": "1993-036AKD", "EPOCH": "2025-12-01T04:42:29.570112", "MEAN_MOTION": 14.77856988, "ECCENTRICITY": 0.0009617, "INCLINATION": 74.0095, "RA_OF_ASC_NODE": 126.7727, "ARG_OF_PERICENTER": 217.2149, "MEAN_ANOMALY": 321.5063, "EPHEMERIS_TYPE": 0, "CLASSIFICATION_TYPE": "U", "NORAD_CAT_ID": 35435, "ELEMENT_SET_NO": 999, "REV_AT_EPOCH": 87368, "BSTAR": 0.0028899, "MEAN_MOTION_DOT": 0.00020833, "MEAN_MOTION_DDOT": 0}, "tle": {"line1": "1 35435U 93036AKD 25335.19617558  .00020833  00000+0  28899-2 0  9994", "line2": "2 35435  74.0095 126.7727 0009617 217.2149 321.5063 14.77856988873683"}}, "geometry": {"type": "Point", "coordinates": [72.94313637259611, -69.91808532412789]}}, {"type": "Feature", "properties": {"norad_id": 35439, "name": "COSMOS 2251 DEB", "group": "cosmos-2251-debris", "lat": 2.296776096016155, "lon": -28.030477842839915, "alt_km": 1067.4046856799087, "timestamp": "2025-12-02T07:10:09.512408+00:00", "meta": {"OBJECT_NAME": "COSMOS 2251 DEB", "OBJECT_ID": "1993-036AKH", "EPOCH": "2025-12-01T18:18:43.778016", "MEAN_MOTION": 13.92733955, "ECCENTRICITY": 0.0241455, "INCLINATION": 74.0186, "RA_OF_ASC_NODE": 153.5455, "ARG_OF_PERICENTER": 325.3038, "MEAN_ANOMALY": 48.7811, "EPHEMERIS_TYPE": 0, "CLASSIFICATION_TYPE": "U", "NORAD_CAT_ID": 35439, "ELEMENT_SET_NO": 999, "REV_AT_EPOCH": 83808, "BSTAR": 0.0015035, "MEAN_MOTION_DOT": 2.446e-05, "MEAN_MOTION_DDOT": 0}, "tle": {"line1": "1 35439U 93036AKH 25335.76300669  .00002446  00000+0  15035-2 0  9991", "line2": "2 35439  74.0186 153.5455 0241455 325.3038  48.7811 13.92733955838088"}}, "geometry": {"type": "Point", "coordinates": [-28.030477842839915, 2.296776096016155]}}, {"type": "Feature", "properties": {"norad_id": 35440, "name": "COSMOS 2251 DEB", "group": "cosmos-2251-debris", "lat": -73.25107297145173, "lon": 155.61213948197147, "alt_km": 677.0208058315839, "timestamp": "2025-12-02T07:10:09.512418+00:00", "meta": {"OBJECT_NAME": "COSMOS 2251 DEB", "OBJECT_ID": "1993-036AKJ", "EPOCH": "2025-11-20T12:43:51.890016", "MEAN_MOTION": 14.68621247, "ECCENTRICITY": 0.00684381, "INCLINATION": 74.0165, "RA_OF_ASC_NODE": 250.6527, "ARG_OF_PERICENTER": 36.9717, "MEAN_ANOMALY": 323.614, "EPHEMERIS_TYPE": 0, "CLASSIFICATION_TYPE": "U", "NORAD_CAT_ID": 35440, "ELEMENT_SET_NO": 999, "REV_AT_EPOCH": 68439, "BSTAR": 0.00059009172, "MEAN_MOTION_DOT": 3.523e-05, "MEAN_MOTION_DDOT": 0}, "tle": {"line1": "1 35440U 93036AKJ 25324.53046169  .00003523  00000+0  59009-3 0  9995", "line2": "2 35440  74.0165 250.6527 0068438  36.9717 323.6140 14.68621247684390"}}, "geometry": {"type": "Point", "coordinates": [155.61213948197147, -73.25107297145173]}}, {"type": "Feature", "properties": {"norad_id": 35441, "name": "COSMOS 2251 DEB", "group": "cosmos-2251-debris", "lat": 67.23319355424924, "lon": 95.3324981675526, "alt_km": 688.7683843297036, "timestamp": "2025-12-02T07:10:09.512428+00:00", "meta": {"OBJECT_NAME": "COSMOS 2251 DEB", "OBJECT_ID": "1993-036AKK", "EPOCH": "2025-11-27T10:05:58.414272", "MEAN_MOTION": 14.62209655, "ECCENTRICITY": 0.00380271, "INCLINATION": 74.1356, "RA_OF_ASC_NODE": 327.2695, "ARG_OF_PERICENTER": 228.9234, "MEAN_ANOMALY": 130.8647, "EPHEMERIS_TYPE": 0, "CLASSIFICATION_TYPE": "U", "NORAD_CAT_ID": 35441, "ELEMENT_SET_NO": 999, "REV_AT_EPOCH": 87206, "BSTAR": 0.0016040934, "MEAN_MOTION_DOT": 8.144e-05, "MEAN_MOTION_DDOT": 0}, "tle": {"line1": "1 35441U 93036AKK 25331.42081498  .00008144  00000+0  16041-2 0  9998", "line2": "2 35441  74.1356 327.2695 0038027 228.9234 130.8647 14.62209655872061"}}, "geometry": {"type": "Point", "coordinates": [95.3324981675526, 67.23319355424924]}}, {"type": "Feature", "properties": {"norad_id": 35442, "name": "COSMOS 2251 DEB", "group": "cosmos-2251-debris", "lat": -69.41218625456413, "lon": -10.46093292707462, "alt_km": 626.2261731574135, "timestamp": "2025-12-02T07:10:09.512438+00:00", "meta": {"OBJECT_NAME": "COSMOS 2251 DEB", "OBJECT_ID": "1993-036AKL", "EPOCH": "2025-12-01T10:35:45.955104", "MEAN_MOTION": 14.83632618, "ECCENTRICITY": 0.00045691, "INCLINATION": 74.026, "RA_OF_ASC_NODE": 121.5459, "ARG_OF_PERICENTER": 138.7484, "MEAN_ANOMALY": 221.4041, "EPHEMERIS_TYPE": 0, "CLASSIFICATION_TYPE": "U", "NORAD_CAT_ID": 35442, "ELEMENT_SET_NO": 999, "REV_AT_EPOCH": 87185, "BSTAR": 0.0037924677, "MEAN_MOTION_DOT": 0.00031418, "MEAN_MOTION_DDOT": 0}, "tle": {"line1": "1 35442U 93036AKL 25335.44150411  .00031418  00000+0  37925-2 0  9991", "line2": "2 35442  74.0260 121.5459 0004569 138.7484 221.4041 14.83632618871850"}}, "geometry": {"type": "Point", "coordinates": [-10.46093292707462, -69.41218625456413]}}, {"type": "Feature", "properties": {"norad_id": 35443, "name": "COSMOS 2251 DEB", "group": "cosmos-2251-debris", "lat": -20.42750475907939, "lon": 178.8911269383445, "alt_km": 562.5414481793723, "timestamp": "2025-12-02T07:10:09.512448+00:00", "meta": {"OBJECT_NAME": "COSMOS 2251 DEB", "OBJECT_ID": "1993-036AKM", "EPOCH": "2025-12-01T19:02:20.168736", "MEAN_MOTION": 14.95343582, "ECCENTRICITY": 0.0074144, "INCLINATION": 73.9873, "RA_OF_ASC_NODE": 353.7736, "ARG_OF_PERICENTER": 139.118, "MEAN_ANOMALY": 221.5599, "EPHEMERIS_TYPE": 0, "CLASSIFICATION_TYPE": "U", "NORAD_CAT_ID": 35443, "ELEMENT_SET_NO": 999, "REV_AT_EPOCH": 86714, "BSTAR": 0.0031171, "MEAN_MOTION_DOT": 0.00036482, "MEAN_MOTION_DDOT": 0}, "tle": {"line1": "1 35443U 93036AKM 25335.79328899  .00036482  00000+0  31171-2 0  9990", "line2": "2 35443  73.9873 353.7736 0074144 139.1180 221.5599 14.95343582867148"}}, "geometry": {"type": "Point", "coordinates": [178.8911269383445, -20.42750475907939]}}, {"type": "Feature", "properties": {"norad_id": 35445, "name": "COSMOS 2251 DEB", "group": "cosmos-2251-debris", "lat": -7.836921633804178, "lon": 142.16307833266075, "alt_km": 776.180674381224, "timestamp": "2025-12-02T07:10:09.512459+00:00", "meta": {"OBJECT_NAME": "COSMOS 2251 DEB", "OBJECT_ID": "1993-036AKP", "EPOCH": "2025-12-01T05:37:58.814400", "MEAN_MOTION": 14.58784895, "ECCENTRICITY": 0.0143608, "INCLINATION": 74.0353, "RA_OF_ASC_NODE": 321.9314, "ARG_OF_PERICENTER": 51.7494, "MEAN_ANOMALY": 309.6492, "EPHEMERIS_TYPE": 0, "CLASSIFICATION_TYPE": "U", "NORAD_CAT_ID": 35445, "ELEMENT_SET_NO": 999, "REV_AT_EPOCH": 87161, "BSTAR": 0.0018521, "MEAN_MOTION_DOT": 9.974e-05, "MEAN_MOTION_DDOT": 0}, "tle": {"line1": "1 35445U 93036AKP 25335.23470850  .00009974  00000+0  18521-2 0  9996", "line2": "2 35445  74.0353 321.9314 0143608  51.7494 309.6492 14.58784895871615"}}, "geometry": {"type": "Point", "coordinates": [142.16307833266075, -7.836921633804178]}}, {"type": "Feature", "properties": {"norad_id": 35446, "name": "COSMOS 2251 DEB", "group": "cosmos-2251-debris", "lat": 24.714224236301238, "lon": -14.509177872189404, "alt_km": 694.1126367008928, "timestamp": "2025-12-02T07:10:09.512469+00:00", "meta": {"OBJECT_NAME": "COSMOS 2251 DEB", "OBJECT_ID": "1993-036AKQ", "EPOCH": "2025-11-30T07:11:01.736160", "MEAN_MOTION": 14.5460995, "ECCENTRICITY": 0.00744354, "INCLINATION": 74.0466, "RA_OF_ASC_NODE": 341.7043, "ARG_OF_PERICENTER": 103.5149, "MEAN_ANOMALY": 257.4321, "EPHEMERIS_TYPE": 0, "CLASSIFICATION_TYPE": "U", "NORAD_CAT_ID": 35446, "ELEMENT_SET_NO": 999, "REV_AT_EPOCH": 87827, "BSTAR": 0.00010353473, "MEAN_MOTION_DOT": 4.29e-06, "MEAN_MOTION_DDOT": 0}, "tle": {"line1": "1 35446U 93036AKQ 25334.29932565  .00000429  00000+0  10353-3 0  9990", "line2": "2 35446  74.0466 341.7043 0074435 103.5149 257.4321 14.54609950878278"}}, "geometry": {"type": "Point", "coordinates": [-14.509177872189404, 24.714224236301238]}}, {"type": "Feature", "properties": {"norad_id": 35448, "name": "COSMOS 2251 DEB", "group": "cosmos-2251-debris", "lat": -71.85384964610529, "lon": -8.812064004531212, "alt_km": 712.4064362958852, "timestamp": "2025-12-02T07:10:09.512479+00:00", "meta": {"OBJECT_NAME": "COSMOS 2251 DEB", "OBJECT_ID": "1993-036AKS", "EPOCH": "2025-11-30T02:46:57.396576", "MEAN_MOTION": 14.54072836, "ECCENTRICITY": 0.00108374, "INCLINATION": 73.9021, "RA_OF_ASC_NODE": 113.5661, "ARG_OF_PERICENTER": 293.2846, "MEAN_ANOMALY": 66.7175, "EPHEMERIS_TYPE": 0, "CLASSIFICATION_TYPE": "U", "NORAD_CAT_ID": 35448, "ELEMENT_SET_NO": 999, "REV_AT_EPOCH": 87151, "BSTAR": 0.0011243379, "MEAN_MOTION_DOT": 4.725e-05, "MEAN_MOTION_DDOT": 0}, "tle": {"line1": "1 35448U 93036AKS 25334.11594209  .00004725  00000+0  11243-2 0  9993", "line2": "2 35448  73.9021 113.5661 0010837 293.2846  66.7175 14.54072836871518"}}, "geometry": {"type": "Point", "coordinates": [-8.812064004531212, -71.85384964610529]}}, {"type": "Feature", "properties": {"norad_id": 35451, "name": "COSMOS 2251 DEB", "group": "cosmos-2251-debris", "lat": 41.25725001815093, "lon": -69.44939189260768, "alt_km": 474.79076670842005, "timestamp": "2025-12-02T07:10:09.512489+00:00", "meta": {"OBJECT_NAME": "COSMOS 2251 DEB", "OBJECT_ID": "1993-036AKV", "EPOCH": "2025-12-01T10:13:47.469504", "MEAN_MOTION": 15.33908779, "ECCENTRICITY": 0.00396196, "INCLINATION": 73.9311, "RA_OF_ASC_NODE": 127.0764, "ARG_OF_PERICENTER": 15.9869, "MEAN_ANOMALY": 344.2575, "EPHEMERIS_TYPE": 0, "CLASSIFICATION_TYPE": "U", "NORAD_CAT_ID": 35451, "ELEMENT_SET_NO": 999, "REV_AT_EPOCH": 67232, "BSTAR": 0.0018622574, "MEAN_MOTION_DOT": 0.00063135, "MEAN_MOTION_DDOT": 0}, "tle": {"line1": "1 35451U 93036AKV 25335.42624386  .00063135  00000+0  18623-2 0  9991", "line2": "2 35451  73.9311 127.0764 0039619  15.9869 344.2575 15.33908779672329"}}, "geometry": {"type": "Point", "coordinates": [-69.44939189260768, 41.25725001815093]}}]}